*******************************************************************************
Ephemeris / WWW_USER Mon Mar 10 08:27:35 2025 Pasadena, USA      / Horizons    
*******************************************************************************
Target body name: 300163 (2006 VW139)             {source: JPL#20}
Center body name: Earth (399)                     {source: DE441}
Center-site name: Mauna Kea
*******************************************************************************
Start time      : A.D. 2018-Nov-11 03:53:00.0000 UT      
Stop  time      : A.D. 2018-Nov-11 16:18:00.0000 UT      
Step-size       : 1 minutes
*******************************************************************************
Target pole/equ : undefined
Target radii    : undefined                                                    
Center geodetic : 204.5278, 19.8260847, 4.21024   {E-lon(deg),Lat(deg),Alt(km)}
Center cylindric: 204.5278, 6006.35451, 2151.0229 {E-lon(deg),Dxy(km),Dz(km)}
Center pole/equ : ITRF93                          {East-longitude positive}
Center radii    : 6378.137, 6378.137, 6356.752 km {Equator_a, b, pole_c}       
Target primary  : Sun
Vis. interferer : MOON (R_eq= 1737.400) km        {source: DE441}
Rel. light bend : Sun                             {source: DE441}
Rel. lght bnd GM: 1.3271E+11 km^3/s^2                                          
Small-body perts: Yes                             {source: SB441-N16}
Atmos refraction: NO (AIRLESS)
RA format       : HMS
Time format     : CAL 
Calendar mode   : Mixed Julian/Gregorian
RTS-only print  : NO       
EOP file        : eop.250307.p250603                                           
EOP coverage    : DATA-BASED 1962-JAN-20 TO 2025-MAR-07. PREDICTS-> 2025-JUN-02
Units conversion: 1 au= 149597870.700 km, c= 299792.458 km/s, 1 day= 86400.0 s 
Table cut-offs 1: Elevation (-90.0deg=NO ),Airmass (>38.000=NO), Daylight (YES)
Table cut-offs 2: Solar elongation (  0.0,180.0=NO ),Local Hour Angle( 0.0=NO )
Table cut-offs 3: RA/DEC angular rate (     0.0=NO )                           
*******************************************************************************
Initial IAU76/J2000 heliocentric ecliptic osculating elements (au, days, deg.):
  EPOCH=  2457991.5 ! 2017-Aug-26.00 (TDB)         Residual RMS= .24052        
   EC= .2010729135113919   QR= 2.43581750533798    TP= 2457700.5743979034      
   OM= 83.18687361565334   W=  281.0057800900049   IN= 3.240211778004737       
  Equivalent ICRF heliocentric cartesian coordinates (au, au/d):
   X= 5.132894709524352E-01  Y= 2.513143937276953E+00  Z= 1.078150377913554E+00
  VX=-1.001562838274837E-02 VY= 3.317467852193382E-03 VZ= 2.080280624827025E-03
Asteroid physical parameters (km, seconds, rotational period in hours):        
   GM= n.a.                RAD= n.a.               ROTPER= 3240.               
   H= 16.21                G= .150                 B-V= n.a.                   
                           ALBEDO= n.a.            STYP= n.a.                  
*******************************************************************************
 Date__(UT)__HR:MN     R.A._________(ICRF)_________DEC
******************************************************
$$SOE
 2018-Nov-11 10:02     11 18 47.832045 +07 26 00.26440
 2018-Nov-11 10:03     11 18 47.869477 +07 26 00.06259
 2018-Nov-11 10:04     11 18 47.906907 +07 25 59.86080
 2018-Nov-11 10:05     11 18 47.944334 +07 25 59.65900
 2018-Nov-11 10:06     11 18 47.981759 +07 25 59.45722
 2018-Nov-11 10:07     11 18 48.019182 +07 25 59.25543
 2018-Nov-11 10:08     11 18 48.056601 +07 25 59.05365
 2018-Nov-11 10:09     11 18 48.094019 +07 25 58.85188
 2018-Nov-11 10:10     11 18 48.131433 +07 25 58.65011
 2018-Nov-11 10:11     11 18 48.168845 +07 25 58.44834
 2018-Nov-11 10:12     11 18 48.206255 +07 25 58.24658
 2018-Nov-11 10:13     11 18 48.243662 +07 25 58.04482
 2018-Nov-11 10:14     11 18 48.281067 +07 25 57.84307
 2018-Nov-11 10:15     11 18 48.318468 +07 25 57.64132
 2018-Nov-11 10:16     11 18 48.355868 +07 25 57.43958
 2018-Nov-11 10:17     11 18 48.393264 +07 25 57.23784
 2018-Nov-11 10:18     11 18 48.430658 +07 25 57.03610
 2018-Nov-11 10:19     11 18 48.468050 +07 25 56.83437
 2018-Nov-11 10:20     11 18 48.505439 +07 25 56.63265
 2018-Nov-11 10:21     11 18 48.542825 +07 25 56.43092
 2018-Nov-11 10:22     11 18 48.580209 +07 25 56.22920
 2018-Nov-11 10:23     11 18 48.617590 +07 25 56.02749
 2018-Nov-11 10:24     11 18 48.654968 +07 25 55.82578
 2018-Nov-11 10:25     11 18 48.692344 +07 25 55.62407
 2018-Nov-11 10:26     11 18 48.729717 +07 25 55.42237
 2018-Nov-11 10:27     11 18 48.767088 +07 25 55.22067
 2018-Nov-11 10:28     11 18 48.804455 +07 25 55.01898
 2018-Nov-11 10:29     11 18 48.841821 +07 25 54.81729
 2018-Nov-11 10:30     11 18 48.879183 +07 25 54.61561
 2018-Nov-11 10:31     11 18 48.916543 +07 25 54.41393
 2018-Nov-11 10:32     11 18 48.953900 +07 25 54.21225
 2018-Nov-11 10:33     11 18 48.991255 +07 25 54.01057
 2018-Nov-11 10:34     11 18 49.028606 +07 25 53.80890
 2018-Nov-11 10:35     11 18 49.065955 +07 25 53.60724
 2018-Nov-11 10:36     11 18 49.103302 +07 25 53.40558
 2018-Nov-11 10:37     11 18 49.140645 +07 25 53.20392
 2018-Nov-11 10:38     11 18 49.177986 +07 25 53.00227
 2018-Nov-11 10:39     11 18 49.215325 +07 25 52.80062
 2018-Nov-11 10:40     11 18 49.252660 +07 25 52.59897
 2018-Nov-11 10:41     11 18 49.289993 +07 25 52.39733
 2018-Nov-11 10:42     11 18 49.327323 +07 25 52.19569
 2018-Nov-11 10:43     11 18 49.364650 +07 25 51.99406
 2018-Nov-11 10:44     11 18 49.401975 +07 25 51.79242
 2018-Nov-11 10:45     11 18 49.439297 +07 25 51.59080
 2018-Nov-11 10:46     11 18 49.476616 +07 25 51.38917
 2018-Nov-11 10:47     11 18 49.513933 +07 25 51.18755
 2018-Nov-11 10:48     11 18 49.551246 +07 25 50.98594
 2018-Nov-11 10:49     11 18 49.588557 +07 25 50.78433
 2018-Nov-11 10:50     11 18 49.625865 +07 25 50.58272
 2018-Nov-11 10:51     11 18 49.663170 +07 25 50.38111
 2018-Nov-11 10:52     11 18 49.700473 +07 25 50.17951
 2018-Nov-11 10:53     11 18 49.737773 +07 25 49.97791
 2018-Nov-11 10:54     11 18 49.775070 +07 25 49.77632
 2018-Nov-11 10:55     11 18 49.812364 +07 25 49.57473
 2018-Nov-11 10:56     11 18 49.849655 +07 25 49.37314
 2018-Nov-11 10:57     11 18 49.886944 +07 25 49.17156
 2018-Nov-11 10:58     11 18 49.924230 +07 25 48.96998
 2018-Nov-11 10:59     11 18 49.961513 +07 25 48.76840
 2018-Nov-11 11:00     11 18 49.998793 +07 25 48.56683
 2018-Nov-11 11:01     11 18 50.036070 +07 25 48.36526
 2018-Nov-11 11:02     11 18 50.073345 +07 25 48.16369
 2018-Nov-11 11:03     11 18 50.110616 +07 25 47.96213
 2018-Nov-11 11:04     11 18 50.147885 +07 25 47.76057
 2018-Nov-11 11:05     11 18 50.185151 +07 25 47.55901
 2018-Nov-11 11:06     11 18 50.222415 +07 25 47.35746
 2018-Nov-11 11:07     11 18 50.259675 +07 25 47.15591
 2018-Nov-11 11:08     11 18 50.296933 +07 25 46.95436
 2018-Nov-11 11:09     11 18 50.334187 +07 25 46.75282
 2018-Nov-11 11:10     11 18 50.371439 +07 25 46.55128
 2018-Nov-11 11:11     11 18 50.408688 +07 25 46.34974
 2018-Nov-11 11:12     11 18 50.445934 +07 25 46.14821
 2018-Nov-11 11:13     11 18 50.483178 +07 25 45.94668
 2018-Nov-11 11:14     11 18 50.520418 +07 25 45.74515
 2018-Nov-11 11:15     11 18 50.557655 +07 25 45.54362
 2018-Nov-11 11:16     11 18 50.594890 +07 25 45.34210
 2018-Nov-11 11:17     11 18 50.632122 +07 25 45.14058
 2018-Nov-11 11:18     11 18 50.669351 +07 25 44.93907
 2018-Nov-11 11:19     11 18 50.706577 +07 25 44.73756
 2018-Nov-11 11:20     11 18 50.743800 +07 25 44.53605
 2018-Nov-11 11:21     11 18 50.781020 +07 25 44.33454
 2018-Nov-11 11:22     11 18 50.818238 +07 25 44.13304
 2018-Nov-11 11:23     11 18 50.855452 +07 25 43.93154
 2018-Nov-11 11:24     11 18 50.892664 +07 25 43.73004
 2018-Nov-11 11:25     11 18 50.929873 +07 25 43.52854
 2018-Nov-11 11:26     11 18 50.967078 +07 25 43.32705
 2018-Nov-11 11:27     11 18 51.004281 +07 25 43.12556
 2018-Nov-11 11:28     11 18 51.041481 +07 25 42.92408
 2018-Nov-11 11:29     11 18 51.078678 +07 25 42.72259
 2018-Nov-11 11:30     11 18 51.115873 +07 25 42.52111
 2018-Nov-11 11:31     11 18 51.153064 +07 25 42.31964
 2018-Nov-11 11:32     11 18 51.190252 +07 25 42.11816
 2018-Nov-11 11:33     11 18 51.227438 +07 25 41.91669
 2018-Nov-11 11:34     11 18 51.264620 +07 25 41.71522
 2018-Nov-11 11:35     11 18 51.301800 +07 25 41.51375
 2018-Nov-11 11:36     11 18 51.338976 +07 25 41.31229
 2018-Nov-11 11:37     11 18 51.376150 +07 25 41.11083
 2018-Nov-11 11:38     11 18 51.413321 +07 25 40.90937
 2018-Nov-11 11:39     11 18 51.450489 +07 25 40.70791
 2018-Nov-11 11:40     11 18 51.487654 +07 25 40.50646
 2018-Nov-11 11:41     11 18 51.524816 +07 25 40.30501
 2018-Nov-11 11:42     11 18 51.561975 +07 25 40.10356
 2018-Nov-11 11:43     11 18 51.599131 +07 25 39.90211
 2018-Nov-11 11:44     11 18 51.636284 +07 25 39.70067
 2018-Nov-11 11:45     11 18 51.673434 +07 25 39.49923
 2018-Nov-11 11:46     11 18 51.710581 +07 25 39.29779
 2018-Nov-11 11:47     11 18 51.747726 +07 25 39.09635
 2018-Nov-11 11:48     11 18 51.784867 +07 25 38.89492
 2018-Nov-11 11:49     11 18 51.822006 +07 25 38.69348
 2018-Nov-11 11:50     11 18 51.859141 +07 25 38.49206
 2018-Nov-11 11:51     11 18 51.896274 +07 25 38.29063
 2018-Nov-11 11:52     11 18 51.933403 +07 25 38.08920
 2018-Nov-11 11:53     11 18 51.970530 +07 25 37.88778
 2018-Nov-11 11:54     11 18 52.007653 +07 25 37.68636
 2018-Nov-11 11:55     11 18 52.044774 +07 25 37.48494
 2018-Nov-11 11:56     11 18 52.081892 +07 25 37.28353
 2018-Nov-11 11:57     11 18 52.119006 +07 25 37.08211
 2018-Nov-11 11:58  r  11 18 52.156118 +07 25 36.88070
 2018-Nov-11 11:59     11 18 52.193227 +07 25 36.67929
 2018-Nov-11 12:00     11 18 52.230333 +07 25 36.47788
 2018-Nov-11 12:01     11 18 52.267436 +07 25 36.27648
 2018-Nov-11 12:02     11 18 52.304536 +07 25 36.07508
 2018-Nov-11 12:03     11 18 52.341633 +07 25 35.87367
 2018-Nov-11 12:04     11 18 52.378727 +07 25 35.67228
